QIANFAN-97              
1 66039U 25233G   25332.79298162  .00000294  00000+0  18339-3 0  9999
2 66039  88.9959  63.6746 0017883  84.9973 275.3248 14.01998115  6032
QIANFAN-98              
1 66040U 25233H   25332.18774275  .00000151  00000+0  70044-4 0  9992
2 66040  88.9965  63.7160 0016779  84.7450 275.5652 14.15557831  5966
QIANFAN-99              
1 66041U 25233J   25332.07743403  .00000336  00000+0  20950-3 0  9995
2 66041  88.9964  63.7549 0017865  82.9134 277.4077 14.02500694  5933
QIANFAN-100             
1 66042U 25233K   25331.76454577  .00000520  00000+0  26208-3 0  9999
2 66042  89.0001  63.7505 0015619  97.9736 262.3224 14.14817762  5903
QIANFAN-101             
1 66043U 25233L   25332.77890735  .00000334  00000+0  13178-3 0  9997
2 66043  88.9967  63.6371 0016933  82.9274 277.3844 14.26662852  6056
QIANFAN-102             
1 66044U 25233M   25331.70042176  .00000427  00000+0  25157-3 0  9991
2 66044  88.9964  63.7910 0017610  87.6306 272.6893 14.06088713  5883
QIANFAN-103             
1 66045U 25233N   25332.72634256  .00000234  00000+0  14705-3 0  9994
2 66045  88.9961  63.6845 0017980  83.0797 277.2427 14.00818104  6021
QIANFAN-104             
1 66046U 25233P   25331.70023505  .00000498  00000+0  29379-3 0  9996
2 66046  88.9966  63.7917 0017339  89.3013 271.0156 14.06186482  5883
